NORAD_CAT_ID,OBJECT_NAME,OBJECT_TYPE,EPOCH,MEAN_MOTION,ECCENTRICITY,INCLINATION,RA_OF_ASC_NODE,ARG_OF_PERICENTER,MEAN_ANOMALY,BSTAR,MEAN_MOTION_DOT,MEAN_MOTION_DDOT,TLE_LINE0,TLE_LINE1,TLE_LINE2,SEMIMAJOR_AXIS,PERIOD,APOGEE,PERIGEE,DECAYED
51759.0,STARLINK-3456,PAYLOAD,2024-05-21 22:51:49,15.08850657,0.0001349,53.2179,17.3272,68.6035,291.5101,0.00039573,6.018e-05,0.0,0 STARLINK-3456,1 51759U 22016AX  24142.95266000  .00006018  00000-0  39573-3 0  9994,2 51759  53.2179  17.3272 0001349  68.6035 291.5101 15.08850657124565,6917.848,95.437,540.646,538.78,0.0
51759.0,STARLINK-3456,PAYLOAD,2024-05-22 00:27:12,15.08851185,0.0001445,53.2186,17.0314,76.1488,283.9665,0.00028552,4.26e-05,0.0,0 STARLINK-3456,1 51759U 22016AX  24143.01889966  .00004260  00000-0  28552-3 0  9996,2 51759  53.2186  17.0314 0001445  76.1488 283.9665 15.08851185124578,6917.846,95.437,540.711,538.712,0.0
51759.0,STARLINK-3456,PAYLOAD,2024-05-22 21:07:13,15.08846895,0.0001821,53.2172,13.1681,127.898,232.2177,0.00048475,7.437e-05,0.0,0 STARLINK-3456,1 51759U 22016AX  24143.88001916  .00007437  00000-0  48475-3 0  9997,2 51759  53.2172  13.1681 0001821 127.8980 232.2177 15.08846895125844,6917.859,95.437,540.984,538.465,0.0
51759.0,STARLINK-3456,PAYLOAD,2024-05-23 00:17:59,15.08849744,0.0001193,53.2171,12.5733,92.9493,267.1635,0.00073751,0.00011472,0.0,0 STARLINK-3456,1 51759U 22016AX  24144.01249883  .00011472  00000-0  73751-3 0  9999,2 51759  53.2171  12.5733 0001193  92.9493 267.1635 15.08849744124725,6917.851,95.437,540.541,538.89,0.0
51759.0,STARLINK-3456,PAYLOAD,2024-05-23 20:58:01,15.08842544,0.0001495,53.2167,8.708,89.7705,270.3459,0.00033002,4.969e-05,0.0,0 STARLINK-3456,1 51759U 22016AX  24144.87362451  .00004969  00000-0  33002-3 0  9998,2 51759  53.2167   8.7080 0001495  89.7705 270.3459 15.08842544125998,6917.873,95.437,540.772,538.703,0.0
51759.0,STARLINK-3456,PAYLOAD,2024-05-24 14:27:15,15.08846928,0.0001373,53.216,5.4364,93.0336,267.0813,0.00038734,5.883e-05,0.0,0 STARLINK-3456,1 51759U 22016AX  24145.60226326  .00005883  00000-0  38734-3 0  9993,2 51759  53.2160   5.4364 0001373  93.0336 267.0813 15.08846928124966,6917.859,95.437,540.674,538.774,0.0
51759.0,STARLINK-3456,PAYLOAD,2024-05-24 20:48:47,15.08850725,0.0001383,53.2157,4.2465,101.7512,258.3636,0.0004749,7.28e-05,0.0,0 STARLINK-3456,1 51759U 22016AX  24145.86722147  .00007280  00000-0  47490-3 0  9995,2 51759  53.2157   4.2465 0001383 101.7512 258.3636 15.08850725125007,6917.848,95.437,540.669,538.756,0.0
51759.0,STARLINK-3456,PAYLOAD,2024-05-25 07:56:30,15.08839152,9.89e-05,53.2157,2.1683,71.018,289.0919,-1.4512e-05,-5.19e-06,0.0,0 STARLINK-3456,1 51759U 22016AX  24146.33090316 -.00000519  00000-0 -14512-4 0  9994,2 51759  53.2157   2.1683 0000989  71.0180 289.0919 15.08839152126217,6917.883,95.438,540.432,539.064,0.0
51759.0,STARLINK-3456,PAYLOAD,2024-05-25 14:18:02,15.08834209,0.000174,53.2164,0.9784,73.97,286.1484,8.5096e-07,-2.75e-06,0.0,0 STARLINK-3456,1 51759U 22016AX  24146.59586739 -.00000275  00000-0  85096-6 0  9996,2 51759  53.2164   0.9784 0001740  73.9700 286.1484 15.08834209125119,6917.898,95.438,540.967,538.559,0.0
51759.0,STARLINK-3456,PAYLOAD,2024-05-25 20:39:35,15.08832826,0.0001366,53.2159,359.7867,84.5947,275.5201,0.00011917,1.609e-05,0.0,0 STARLINK-3456,1 51759U 22016AX  24146.86082839  .00001609  00000-0  11917-3 0  9997,2 51759  53.2159 359.7867 0001366  84.5947 275.5201 15.08832826126297,6917.902,95.438,540.712,538.822,0.0
51759.0,STARLINK-3456,PAYLOAD,2024-05-26 20:30:22,15.08872009,0.0001167,53.2173,355.3285,76.4483,283.6639,0.0014168,0.00022352,0.0,0 STARLINK-3456,1 51759U 22016AX  24147.85442242  .00022352  00000-0  14168-2 0  9993,2 51759  53.2173 355.3285 0001167  76.4483 283.6639 15.08872009126442,6917.783,95.436,540.455,538.84,0.0
51759.0,STARLINK-3456,PAYLOAD,2024-05-26 23:41:08,15.08861144,0.0001372,53.2172,354.7298,84.8357,275.2792,0.00087909,0.00013738,0.0,0 STARLINK-3456,1 51759U 22016AX  24147.98690424  .00013738  00000-0  87909-3 0  9996,2 51759  53.2172 354.7298 0001372  84.8357 275.2792 15.08861144126466,6917.816,95.436,540.63,538.732,0.0
51759.0,STARLINK-3456,PAYLOAD,2024-05-27 13:59:36,15.08845003,0.0001275,53.2168,352.0544,74.8451,285.2682,0.0001611,2.277e-05,0.0,0 STARLINK-3456,1 51759U 22016AX  24148.58306600  .00002277  00000-0  16110-3 0  9995,2 51759  53.2168 352.0544 0001275  74.8451 285.2682 15.08845003126557,6917.865,95.437,540.612,538.848,0.0
51759.0,STARLINK-3456,PAYLOAD,2024-05-27 21:56:32,15.08844912,0.0001227,53.217,350.5609,104.5893,255.5235,0.00016779,2.384e-05,0.0,0 STARLINK-3456,1 51759U 22016AX  24148.91426449  .00002384  00000-0  16779-3 0  9996,2 51759  53.2170 350.5609 0001227 104.5893 255.5235 15.08844912125464,6917.865,95.437,540.579,538.882,0.0
51759.0,STARLINK-3456,PAYLOAD,2024-05-28 05:53:28,15.08845266,0.0001231,53.2177,349.0789,101.4243,258.6888,0.00014057,1.95e-05,0.0,0 STARLINK-3456,1 51759U 22016AX  24149.24546446  .00001950  00000-0  14057-3 0  9998,2 51759  53.2177 349.0789 0001231 101.4243 258.6888 15.08845266125510,6917.864,95.437,540.581,538.878,0.0
51759.0,STARLINK-3456,PAYLOAD,2024-05-28 18:36:33,15.0884427,0.0001234,53.2167,346.6997,103.7192,256.3938,5.3929e-05,5.71e-06,0.0,0 STARLINK-3456,1 51759U 22016AX  24149.77538430  .00000571  00000-0  53929-4 0  9990,2 51759  53.2167 346.6997 0001234 103.7192 256.3938 15.08844270126734,6917.867,95.437,540.586,538.879,0.0
51759.0,STARLINK-3456,PAYLOAD,2024-05-29 18:27:20,15.08836739,0.0001186,53.2165,342.2398,100.8674,259.2451,6.6079e-05,7.64e-06,0.0,0 STARLINK-3456,1 51759U 22016AX  24150.76899042  .00000764  00000-0  66079-4 0  9994,2 51759  53.2165 342.2398 0001186 100.8674 259.2451 15.08836739126887,6917.89,95.438,540.576,538.935,0.0
51759.0,STARLINK-3456,PAYLOAD,2024-05-29 18:27:21,15.088312,0.0001145,53.2163,342.2405,100.1395,259.9726,0.00022437,3.284e-05,0.0,0 STARLINK-3456,1 51759U 22016AX  24150.76899334  .00003284  00000-0  22437-3 0  9997,2 51759  53.2163 342.2405 0001145 100.1395 259.9726 15.08831200125746,6917.907,95.438,540.564,538.98,0.0
51759.0,STARLINK-3456,PAYLOAD,2024-05-30 19:53:30,15.0885269,0.0001112,53.2161,337.4837,85.9083,274.2036,0.00029107,4.349e-05,0.0,0 STARLINK-3456,1 51759U 22016AX  24151.82882457  .00004349  00000-0  29107-3 0  9997,2 51759  53.2161 337.4837 0001112  85.9083 274.2036 15.08852690127042,6917.842,95.437,540.476,538.937,0.0
51759.0,STARLINK-3456,PAYLOAD,2024-05-30 21:28:53,15.08855947,0.0001152,53.2163,337.1842,97.1927,262.9196,0.00033222,5.006e-05,0.0,0 STARLINK-3456,1 51759U 22016AX  24151.89506225  .00005006  00000-0  33222-3 0  9994,2 51759  53.2163 337.1842 0001152  97.1927 262.9196 15.08855947125916,6917.832,95.437,540.494,538.9,0.0
51759.0,STARLINK-3456,PAYLOAD,2024-05-31 19:44:17,15.08847922,0.0001229,53.2168,333.0207,95.6291,264.4842,0.00012163,1.649e-05,0.0,0 STARLINK-3456,1 51759U 22016AX  24152.82242409  .00001649  00000-0  12163-3 0  9999,2 51759  53.2168 333.0207 0001229  95.6291 264.4842 15.08847922127194,6917.856,95.437,540.571,538.871,0.0
51759.0,STARLINK-3456,PAYLOAD,2024-05-31 21:19:40,15.08849567,0.0001227,53.2167,332.7226,96.0758,264.0374,0.0001438,2.002e-05,0.0,0 STARLINK-3456,1 51759U 22016AX  24152.88866300  .00002002  00000-0  14380-3 0  9994,2 51759  53.2167 332.7226 0001227  96.0758 264.0374 15.08849567126069,6917.851,95.437,540.565,538.867,0.0
51759.0,STARLINK-3456,PAYLOAD,2024-06-01 05:16:36,15.08842247,0.0001198,53.2156,331.2351,93.108,267.005,2.09e-05,4.5e-07,0.0,0 STARLINK-3456,1 51759U 22016AX  24153.21986515  .00000045  00000-0  20900-4 0  9994,2 51759  53.2156 331.2351 0001198  93.1080 267.0050 15.08842247127257,6917.874,95.437,540.567,538.91,0.0
51759.0,STARLINK-3456,PAYLOAD,2024-06-02 05:07:23,15.08841797,0.0001328,53.2172,326.7743,102.4834,257.6306,4.2917e-05,3.95e-06,0.0,0 STARLINK-3456,1 51759U 22016AX  24154.21346649  .00000395  00000-0  42917-4 0  9993,2 51759  53.2172 326.7743 0001328 102.4834 257.6306 15.08841797126263,6917.875,95.437,540.659,538.821,0.0
51759.0,STARLINK-3456,PAYLOAD,2024-06-03 11:19:43,15.08837222,0.0001409,53.2167,321.1248,98.4709,261.6443,0.00011728,1.579e-05,0.0,0 STARLINK-3456,1 51759U 22016AX  24155.47203378  .00001579  00000-0  11728-3 0  9993,2 51759  53.2167 321.1248 0001409  98.4709 261.6443 15.08837222127593,6917.889,95.438,540.729,538.779,0.0
51759.0,STARLINK-3456,PAYLOAD,2024-06-03 20:52:02,15.0884323,0.0001398,53.2184,319.3446,85.6757,274.4395,8.7486e-05,1.105e-05,0.0,0 STARLINK-3456,1 51759U 22016AX  24155.86947143  .00001105  00000-0  87486-4 0  9991,2 51759  53.2184 319.3446 0001398  85.6757 274.4395 15.08843230126514,6917.871,95.437,540.703,538.768,0.0
51759.0,STARLINK-3456,PAYLOAD,2024-06-04 11:10:30,15.08840036,0.0001501,53.2165,316.6682,85.4793,274.637,0.00011764,1.585e-05,0.0,0 STARLINK-3456,1 51759U 22016AX  24156.46563387  .00001585  00000-0  11764-3 0  9999,2 51759  53.2165 316.6682 0001501  85.4793 274.6370 15.08840036126605,6917.88,95.438,540.784,538.707,0.0
51759.0,STARLINK-3456,PAYLOAD,2024-06-04 17:32:02,15.08848025,0.0001433,53.2105,315.4759,86.5248,273.5908,0.0002201,3.217e-05,0.0,0 STARLINK-3456,1 51759U 22016AX  24156.73059025  .00003217  00000-0  22010-3 0  9998,2 51759  53.2105 315.4759 0001433  86.5248 273.5908 15.08848025127783,6917.856,95.437,540.712,538.73,0.0
51759.0,STARLINK-3456,PAYLOAD,2024-06-05 11:01:18,15.08825869,9.47e-05,53.2114,312.2041,72.1805,287.929,-0.00010313,-1.928e-05,0.0,0 STARLINK-3456,1 51759U 22016AX  24157.45924032 -.00001928  00000-0 -10313-3 0  9999,2 51759  53.2114 312.2041 0000947  72.1805 287.9290 15.08825869127897,6917.924,95.438,540.444,539.133,0.0
51759.0,STARLINK-3456,PAYLOAD,2024-06-05 17:22:50,15.08841127,6.25e-05,53.209,311.0142,49.988,310.1167,0.00013162,1.808e-05,0.0,0 STARLINK-3456,1 51759U 22016AX  24157.72419357  .00001808  00000-0  13162-3 0  9998,2 51759  53.2090 311.0142 0000625  49.9880 310.1167 15.08841127127939,6917.877,95.437,540.174,539.31,0.0
